MALLIGYONG-1            
1 58400U 23179A   24083.51813615  .00010368  00000+0  46262-3 0  9996
2 58400  97.4163 331.6474 0009086 192.1586 167.9432 15.21537356 18696
